ZHOU ENLAI              
1 43156U 18008B   21264.87801406  .00001112  00000-0  67713-4 0  9998
2 43156  97.3979 326.7565 0014366   2.0752 116.6635 15.12334411202585
QUANTUTONG 1            
1 43158U 18008D   21264.93392344  .00001431  00000-0  87504-4 0  9997
2 43158  97.3937 325.2449 0013636   1.6258 171.3432 15.11731032202516
S-NET D                 
1 43186U 18014G   21264.46830365  .00000240  00000-0  25757-4 0  9992
2 43186  97.6676 170.2917 0012053 117.1423 243.1030 14.97136825198661
S-NET B                 
1 43187U 18014H   21264.46825854  .00000241  00000-0  25792-4 0  9990
2 43187  97.6672 170.2547 0012056 117.0617 243.1837 14.97136191198665
S-NET A                 
1 43188U 18014J   21264.46838262  .00000241  00000-0  25823-4 0  9993
2 43188  97.6677 170.3039 0012052 117.1444 243.1008 14.97135043198668
S-NET C                 
1 43189U 18014K   21264.53571449  .00000267  00000-0  28067-4 0  9994
2 43189  97.6672 170.3125 0012067 116.8856 243.3601 14.97134777197224
FENGMANIU-1 (FMN-1)     
1 43192U 18015A   21264.84828049  .00004714  00000-0  17054-3 0  9998
2 43192  97.5008  40.8160 0012862 260.9689 203.2826 15.28856703202314
SHAONIAN XING           
1 43199U 18015H   21264.84595656  .00003126  00000-0  11662-3 0  9995
2 43199  97.4789  37.5993 0014086 271.9774 191.3647 15.28102893202367
LUOJIA-1 01             
1 43485U 18048B   21264.80988830  .00000198  00000-0  35448-4 0  9990
2 43485  97.9573 345.1769 0011092 353.3912   6.7147 14.76902796178215
SURFSAT                 
1 43614U 18070B   21264.54894639  .00005182  00000-0  11660-3 0  9990
2 43614  93.0351 346.0810 0013265   1.9143 358.2162 15.43251128169485
CP7 (DAVE)              
1 43615U 18070C   21264.19648361  .00004884  00000-0  11114-3 0  9993
2 43615  93.0356 345.8767 0013565   3.3681 356.7664 15.42909985169418
ELFIN-B                 
1 43616U 18070D   21264.86068018  .00010067  00000-0  20239-3 0  9991
2 43616  93.0306 346.4762 0012625 356.4842   3.6325 15.46537289169660
ELFIN-A                 
1 43617U 18070E   21264.78797851  .00010208  00000-0  20131-3 0  9995
2 43617  93.0355 347.3880 0011889 353.8123   6.2987 15.47107550169679
CZ-4B R/B               
1 43656U 18081B   21264.58210322  .00000011  00000-0  21025-4 0  9996
2 43656  99.3701  12.2307 0208377 196.4852 162.9484 14.30480114151919
CUBEBEL-1 (BSUSAT-1)    
1 43666U 18083E   21264.97542819  .00001767  00000-0  85810-4 0  9992
2 43666  97.4505 292.1220 0014114 185.9995 221.8605 15.19704084160675
CHANGSHAGAOXIN (TY 4-01)
1 43669U 18083H   21264.97953903  .00001709  00000-0  86156-4 0  9995
2 43669  97.4419 288.9052 0010438 179.2205 235.0931 15.18462101160537
TEN-KOH                 
1 43677U 18084G   21264.65690719  .00000150  00000-0  21248-4 0  9993
2 43677  97.9318  28.0060 0017392  78.9712 281.3461 14.90525833157635
DIWATA-2B               
1 43678U 18084H   21264.84124495  .00000076  00000-0  13330-4 0  9998
2 43678  97.9354  30.6847 0011312  92.4304 267.8229 14.91789232157808
STARS-AO                
1 43679U 18084J   21264.29781784  .00000669  00000-0  70634-4 0  9996
2 43679  97.9402  31.5082 0010552 100.0750 260.1660 14.92608788157789
AUTCUBE 2               
1 43681U 18084K   21264.28859263  .00000450  00000-0  49925-4 0  9993
2 43681  97.9366  30.4984 0010920  94.7025 265.5440 14.92163062157701
IRVINE01                
1 43693U 18088D   21264.88064882  .00004754  00000-0  17973-3 0  9999
2 43693  85.0324 130.8400 0017418  34.7756 325.4623 15.26540331159143
ES'HAIL 2               
1 43700U 18090A   21264.81610969  .00000129  00000-0  00000-0 0  9999
2 43700   0.0182 244.2596 0002390 322.7416 113.5161  1.00272747 10333
FACSAT-1                
1 43721U 18096C   21264.98810390  .00003240  00000-0  11571-3 0  9991
2 43721  97.3777 341.3974 0015018 291.4229 193.7405 15.29480344156870
CENTAURI-2              
1 43722U 18096D   21264.46776164  .00004067  00000-0  13901-3 0  9992
2 43722  97.3826 341.8881 0014510 290.3854  69.5828 15.30766640156840
3CAT-1                  
1 43728U 18096K   21264.92274470  .00004019  00000-0  13611-3 0  9997
2 43728  97.3830 342.9660 0014568 293.0138 183.4387 15.31070687156943
INNOSAT-2               
1 43738U 18096V   21264.94829544  .00005948  00000-0  17855-3 0  9994
2 43738  97.3887 346.7604 0018827 286.0136 191.3030 15.34661909157195
REAKTOR HELLO WORLD     
1 43743U 18096AA  21264.78172621  .00002456  00000-0  88919-4 0  9990
2 43743  97.3803 341.5567 0015389 297.3785  62.5888 15.29269609156852
ELYSIUM STAR 2 & LFF    
1 43760U 18099C   21264.81636880  .00001624  00000-0  14758-3 0  9993
2 43760  97.6634 334.1651 0015343  86.3890 273.9086 14.96537272152920
2018-099D               
1 43761U 18099D   21264.77422773 -.00000468  00000-0 -37188-4 0  9993
2 43761  97.6589 333.2459 0015962  88.9606 271.3428 14.95356372152860
AISTECHSAT 2            
1 43768U 18099L   21264.42071789  .00000381  00000-0  40010-4 0  9999
2 43768  97.6544 331.6960 0013029  89.2485 271.0228 14.94986064152487
FOX-1CLIFF (AO-95)      
1 43770U 18099N   21264.47201556  .00000951  00000-0  90938-4 0  9991
2 43770  97.6572 332.5047 0016095  96.7410 263.5643 14.95431130152807
RANGE-A                 
1 43772U 18099Q   21265.14913969  .00001176  00000-0  11036-3 0  9997
2 43772  97.6664 334.3157 0015676  82.7367 277.5639 14.95765917152918
RANGE-B                 
1 43773U 18099R   21264.15071376  .00000483  00000-0  48936-4 0  9995
2 43773  97.6506 331.4157 0015099  85.7607 274.5339 14.95296533152749
2018-099T               
1 43775U 18099T   21264.41534372  .00000616  00000-0  60841-4 0  9993
2 43775  97.6576 332.6526 0016236  88.6529 271.6552 14.95357036152796
MOVE-II                 
1 43780U 18099Y   21264.45958342  .00000921  00000-0  86839-4 0  9994
2 43780  97.6591 333.1437 0014807  93.9755 266.3159 14.96097563152823
SNUSAT-2                
1 43782U 18099AA  21264.42259597  .00000518  00000-0  51636-4 0  9998
2 43782  97.6574 332.8310 0014315  83.8971 276.3881 14.95666866152813
SNUGLITE                
1 43784U 18099AC  21264.42263370  .00000526  00000-0  52118-4 0  9999
2 43784  97.6538 332.5330 0016634  90.5483 269.7644 14.95802202152834
ITASAT 1                
1 43786U 18099AE  21264.90800268  .00000002  00000-0  52990-5 0  9995
2 43786  97.6592 333.6761 0016578  88.5507 271.7614 14.95711570152902
KAZSCISAT-1             
1 43787U 18099AF  21264.46284964  .00001027  00000-0  95822-4 0  9994
2 43787  97.6505 332.3959 0015512  87.6724 272.6274 14.96256542152861
EAGLET-I                
1 43790U 18099AJ  21264.45188752  .00000104  00000-0  14345-4 0  9991
2 43790  97.6580 333.6803 0014854  93.3316 266.9604 14.96051221152566
ESEO                    
1 43792U 18099AL  21264.45271985  .00000049  00000-0  94841-5 0  9992
2 43792  97.6543 333.1941 0014706  90.9414 269.3492 14.95785280152619
CSIM-FD                 
1 43793U 18099AM  21264.41906373  .00001304  00000-0  11883-3 0  9993
2 43793  97.6589 333.7228 0014667  87.8095 272.4806 14.96769004152622
ASTROCAST 0.1           
1 43798U 18099AS  21264.45353880  .00000308  00000-0  32223-4 0  9996
2 43798  97.6586 333.9191 0013585  75.2414 285.0312 14.96297562152873
JY1SAT (JO-97)          
1 43803U 18099AX  21264.45397081  .00000456  00000-0  45716-4 0  9999
2 43803  97.6551 332.9742 0016434  90.1503 270.1602 14.95977476152846
SUOMI-100               
1 43804U 18099AY  21264.46150004  .00000681  00000-0  65775-4 0  9990
2 43804  97.6548 332.9397 0016612  90.4411 269.8714 14.95943133152851
AL-FARABI 2             
1 43805U 18099AZ  21264.84890946  .00000092  00000-0  13192-4 0  9991
2 43805  97.6562 333.5931 0016502  87.7413 272.5680 14.96190016152924
CENTAURI-1              
1 43809U 18099BD  21264.13952077  .00000854  00000-0  81161-4 0  9998
2 43809  97.6565 332.9428 0016785  92.2320 268.0823 14.95920183152504
CHOMPTT                 
1 43855U 18104G   21264.63828652  .00001921  00000-0  76623-4 0  9995
2 43855  85.0370 229.7290 0018207 144.3399 215.9065 15.24302223153744
DAVINCI                 
1 43857U 18104J   21264.65613870  .00005049  00000-0  19226-3 0  9993
2 43857  85.0318 229.2670 0014690 163.5169 196.6556 15.26361658153755
UWE-4                   
1 43880U 18111E   21264.30620201  .00000519  00000-0  50088-4 0  9994
2 43880  97.6784 170.3686 0013124 136.1491 224.0775 14.96990463149421
ZACUBE-2                
1 43907U 18111AH  21264.89062679  .00001096  00000-0  45945-4 0  9994
2 43907  97.2191 155.7348 0019857 316.0341 108.1626 15.25408540152337
MICRODRAGON             
1 43935U 19003D   21264.88161912  .00001508  00000-0  65639-4 0  9995
2 43935  97.1728 302.1302 0019058  49.7782 310.5119 15.23551127148781
AOBA VELOX-IV           
1 43940U 19003J   21264.85495933  .00004868  00000-0  17881-3 0  9998
2 43940  97.1690 305.3201 0022698  30.8734 329.3836 15.28130583149026
M6P                     
1 44109U 19018AF  21264.48813732  .00003079  00000-0  92922-4 0  9995
2 44109  97.4211 342.0434 0054961  12.3287 347.9285 15.33585882138178
SPOOQY-1                
1 44332U 98067QH  21263.97757013  .00203662  27421-4  50097-3 0  9992
2 44332  51.6272 148.4364 0002910 209.9849 150.0992 15.95636464129236
FORMOSAT 7-4            
1 44350U 19036M   21264.81092244  .00001177  00000-0  53084-4 0  9990
2 44350  23.9998  68.8148 0006184 117.1228 242.9907 15.07934163122854
PAINANI 1               
1 44365U 19037A   21264.87122689  .00006215  00000-0  14906-3 0  9997
2 44365  45.0043  80.0274 0002930  39.8467 320.2637 15.42313169125659
ACRUX 1                 
1 44369U 19037E   21264.71043034  .00012629  00000-0  22944-3 0  9997
2 44369  45.0055  52.8263 0007668  28.4258 331.7051 15.49603128125916
METEOR-M2 2             
1 44387U 19038A   21264.75538035 -.00000010  00000-0  14825-4 0  9994
2 44387  98.6800 223.2887 0001544  19.3562 340.7676 14.23691293115179
